{
  "type": "FeatureCollection",
  "features": [
    {
      "type": "Feature",
      "properties": {
        "norad_id": 42939,
        "name": "COSMOS 2522 (752)",
        "group": "gnss",
        "lat": 62.977400320474786,
        "lon": -89.09981395257937,
        "alt_km": 19136.29727854699,
        "timestamp": "2025-12-08T05:48:09.278463+00:00",
        "meta_object_name": "COSMOS 2522 (752)",
        "meta_object_id": "2017-055A",
        "meta_epoch": "2025-12-07T04:42:21.698208",
        "meta_mean_motion": 2.13101873,
        "meta_eccentricity": 0.00064632,
        "meta_inclination": 64.0758,
        "meta_ra_of_asc_node": 198.418,
        "meta_arg_of_pericenter": 225.3159,
        "meta_mean_anomaly": 134.7149,
        "meta_ephemeris_type": 0,
        "meta_classification_type": "U",
        "meta_norad_cat_id": 42939,
        "meta_element_set_no": 999,
        "meta_rev_at_epoch": 6388,
        "meta_bstar": 0,
        "meta_mean_motion_dot": 6.1e-07,
        "meta_mean_motion_ddot": 0,
        "tle_line1": "1 42939U 17055A   25341.19608447  .00000061  00000+0  00000+0 0  9994",
        "tle_line2": "2 42939  64.0758 198.4180 0006463 225.3159 134.7149  2.13101873 63886"
      },
      "geometry": {
        "type": "Point",
        "coordinates": [
          -89.09981395257937,
          62.977400320474786
        ]
      }
    },
    {
      "type": "Feature",
      "properties": {
        "norad_id": 42965,
        "name": "QZS-4 (QZSS/PRN 195)",
        "group": "gnss",
        "lat": -23.67808352232589,
        "lon": -45.32647819442662,
        "alt_km": 33614.71056632927,
        "timestamp": "2025-12-08T05:48:09.278475+00:00",
        "meta_object_name": "QZS-4 (QZSS/PRN 195)",
        "meta_object_id": "2017-062A",
        "meta_epoch": "2025-12-07T21:05:53.129760",
        "meta_mean_motion": 1.0025358,
        "meta_eccentricity": 0.07523887,
        "meta_inclination": 40.2283,
        "meta_ra_of_asc_node": 345.9325,
        "meta_arg_of_pericenter": 271.4244,
        "meta_mean_anomaly": 272.796,
        "meta_ephemeris_type": 0,
        "meta_classification_type": "U",
        "meta_norad_cat_id": 42965,
        "meta_element_set_no": 999,
        "meta_rev_at_epoch": 2988,
        "meta_bstar": 0,
        "meta_mean_motion_dot": -3.49e-06,
        "meta_mean_motion_ddot": 0,
        "tle_line1": "1 42965U 17062A   25341.87908715 -.00000349  00000+0  00000+0 0  9997",
        "tle_line2": "2 42965  40.2283 345.9325 0752388 271.4244 272.7960  1.00253580 29889"
      },
      "geometry": {
        "type": "Point",
        "coordinates": [
          -45.32647819442662,
          -23.67808352232589
        ]
      }
    },
    {
      "type": "Feature",
      "properties": {
        "norad_id": 43001,
        "name": "BEIDOU-3 M1 (C19)",
        "group": "gnss",
        "lat": 2.1667664990520197,
        "lon": -112.04050440739145,
        "alt_km": 21543.044327694297,
        "timestamp": "2025-12-08T05:48:09.278487+00:00",
        "meta_object_name": "BEIDOU-3 M1 (C19)",
        "meta_object_id": "2017-069A",
        "meta_epoch": "2025-12-07T10:33:38.997216",
        "meta_mean_motion": 1.86230818,
        "meta_eccentricity": 0.00090499,
        "meta_inclination": 56.5227,
        "meta_ra_of_asc_node": 69.4088,
        "meta_arg_of_pericenter": 303.7178,
        "meta_mean_anomaly": 56.2144,
        "meta_ephemeris_type": 0,
        "meta_classification_type": "U",
        "meta_norad_cat_id": 43001,
        "meta_element_set_no": 999,
        "meta_rev_at_epoch": 5503,
        "meta_bstar": 0,
        "meta_mean_motion_dot": -4.4e-07,
        "meta_mean_motion_ddot": 0,
        "tle_line1": "1 43001U 17069A   25341.44003469 -.00000044  00000+0  00000+0 0  9993",
        "tle_line2": "2 43001  56.5227  69.4088 0009049 303.7178  56.2144  1.86230818 55035"
      },
      "geometry": {
        "type": "Point",
        "coordinates": [
          -112.04050440739145,
          2.1667664990520197
        ]
      }
    },
    {
      "type": "Feature",
      "properties": {
        "norad_id": 43002,
        "name": "BEIDOU-3 M2 (C20)",
        "group": "gnss",
        "lat": -31.515824510318172,
        "lon": -86.67006381021488,
        "alt_km": 21538.855301309115,
        "timestamp": "2025-12-08T05:48:09.278498+00:00",
        "meta_object_name": "BEIDOU-3 M2 (C20)",
        "meta_object_id": "2017-069B",
        "meta_epoch": "2025-12-07T09:04:52.679136",
        "meta_mean_motion": 1.86230635,
        "meta_eccentricity": 0.00063308,
        "meta_inclination": 56.5218,
        "meta_ra_of_asc_node": 69.4472,
        "meta_arg_of_pericenter": 331.2047,
        "meta_mean_anomaly": 28.7785,
        "meta_ephemeris_type": 0,
        "meta_classification_type": "U",
        "meta_norad_cat_id": 43002,
        "meta_element_set_no": 999,
        "meta_rev_at_epoch": 5502,
        "meta_bstar": 0,
        "meta_mean_motion_dot": -4.4e-07,
        "meta_mean_motion_ddot": 0,
        "tle_line1": "1 43002U 17069B   25341.37838749 -.00000044  00000+0  00000+0 0  9993",
        "tle_line2": "2 43002  56.5218  69.4472 0006330 331.2047  28.7785  1.86230635 55025"
      },
      "geometry": {
        "type": "Point",
        "coordinates": [
          -86.67006381021488,
          -31.515824510318172
        ]
      }
    },
    {
      "type": "Feature",
      "properties": {
        "norad_id": 43055,
        "name": "GSAT0215 (GALILEO 19)",
        "group": "gnss",
        "lat": -54.48335334756547,
        "lon": 149.39539924269312,
        "alt_km": 23213.87974889356,
        "timestamp": "2025-12-08T05:48:09.278509+00:00",
        "meta_object_name": "GSAT0215 (GALILEO 19)",
        "meta_object_id": "2017-079A",
        "meta_epoch": "2025-12-06T00:43:24.455424",
        "meta_mean_motion": 1.70473755,
        "meta_eccentricity": 0.00048437,
        "meta_inclination": 55.1369,
        "meta_ra_of_asc_node": 226.8228,
        "meta_arg_of_pericenter": 284.5496,
        "meta_mean_anomaly": 75.4946,
        "meta_ephemeris_type": 0,
        "meta_classification_type": "U",
        "meta_norad_cat_id": 43055,
        "meta_element_set_no": 999,
        "meta_rev_at_epoch": 4969,
        "meta_bstar": 0,
        "meta_mean_motion_dot": 3.4e-07,
        "meta_mean_motion_ddot": 0,
        "tle_line1": "1 43055U 17079A   25340.03014416  .00000034  00000+0  00000+0 0  9999",
        "tle_line2": "2 43055  55.1369 226.8228 0004843 284.5496  75.4946  1.70473755 49697"
      },
      "geometry": {
        "type": "Point",
        "coordinates": [
          149.39539924269312,
          -54.48335334756547
        ]
      }
    },
    {
      "type": "Feature",
      "properties": {
        "norad_id": 43056,
        "name": "GSAT0216 (GALILEO 20)",
        "group": "gnss",
        "lat": 54.24663353784251,
        "lon": -28.581592609109173,
        "alt_km": 23221.649904240636,
        "timestamp": "2025-12-08T05:48:09.278520+00:00",
        "meta_object_name": "GSAT0216 (GALILEO 20)",
        "meta_object_id": "2017-079B",
        "meta_epoch": "2025-12-07T11:52:26.276448",
        "meta_mean_motion": 1.7047388,
        "meta_eccentricity": 0.00025242,
        "meta_inclination": 55.1322,
        "meta_ra_of_asc_node": 226.7823,
        "meta_arg_of_pericenter": 318.0138,
        "meta_mean_anomaly": 42.0613,
        "meta_ephemeris_type": 0,
        "meta_classification_type": "U",
        "meta_norad_cat_id": 43056,
        "meta_element_set_no": 999,
        "meta_rev_at_epoch": 4973,
        "meta_bstar": 0,
        "meta_mean_motion_dot": 2.4e-07,
        "meta_mean_motion_ddot": 0,
        "tle_line1": "1 43056U 17079B   25341.49474857  .00000024  00000+0  00000+0 0  9999",
        "tle_line2": "2 43056  55.1322 226.7823 0002524 318.0138  42.0613  1.70473880 49732"
      },
      "geometry": {
        "type": "Point",
        "coordinates": [
          -28.581592609109173,
          54.24663353784251
        ]
      }
    },
    {
      "type": "Feature",
      "properties": {
        "norad_id": 43057,
        "name": "GSAT0217 (GALILEO 21)",
        "group": "gnss",
        "lat": -29.590941261054816,
        "lon": -156.5339718526705,
        "alt_km": 23218.139727286845,
        "timestamp": "2025-12-08T05:48:09.278533+00:00",
        "meta_object_name": "GSAT0217 (GALILEO 21)",
        "meta_object_id": "2017-079C",
        "meta_epoch": "2025-12-05T22:56:13.502976",
        "meta_mean_motion": 1.70473847,
        "meta_eccentricity": 0.00027948,
        "meta_inclination": 55.1308,
        "meta_ra_of_asc_node": 226.8227,
        "meta_arg_of_pericenter": 341.4584,
        "meta_mean_anomaly": 18.6294,
        "meta_ephemeris_type": 0,
        "meta_classification_type": "U",
        "meta_norad_cat_id": 43057,
        "meta_element_set_no": 999,
        "meta_rev_at_epoch": 4969,
        "meta_bstar": 0,
        "meta_mean_motion_dot": 3.5e-07,
        "meta_mean_motion_ddot": 0,
        "tle_line1": "1 43057U 17079C   25339.95571184  .00000035  00000+0  00000+0 0  9991",
        "tle_line2": "2 43057  55.1308 226.8227 0002794 341.4584  18.6294  1.70473847 49692"
      },
      "geometry": {
        "type": "Point",
        "coordinates": [
          -156.5339718526705,
          -29.590941261054816
        ]
      }
    }
  ]
}